[
    {
        "Altitude(m)": 555047.5887375951,
        "Argument of Periapsis(deg)": 0.033114955553567506,
        "Eccentricity": 0.0,
        "Inclination(deg)": 53.0,
        "Latitude(deg)": 29.97620859426729,
        "Longitude(deg)": -74.59941441385449,
        "Mean Anomaly(deg)": -218.6328356621121,
        "RAAN(deg)": 234.95071684264005,
        "Satellite Name": "Starlink Shell 1 1039",
        "Satellite Number": 1039,
        "Semi-Major Axis(m)": 6931778.249405717,
        "Time(s)": 950
    },
    {
        "Altitude(m)": 554975.0373877352,
        "Argument of Periapsis(deg)": 0.03346353403307874,
        "Eccentricity": 0.0,
        "Inclination(deg)": 53.0,
        "Latitude(deg)": 29.521782367352337,
        "Longitude(deg)": -74.14171700584589,
        "Mean Anomaly(deg)": -218.00600445855534,
        "RAAN(deg)": 234.9501980725626,
        "Satellite Name": "Starlink Shell 1 1039",
        "Satellite Number": 1039,
        "Semi-Major Axis(m)": 6931778.249405717,
        "Time(s)": 960
    },
    {
        "Altitude(m)": 554903.6036304462,
        "Argument of Periapsis(deg)": 0.03381211251258998,
        "Eccentricity": 0.0,
        "Inclination(deg)": 53.0,
        "Latitude(deg)": 29.06546898800517,
        "Longitude(deg)": -73.68846428949563,
        "Mean Anomaly(deg)": -217.37917325499865,
        "RAAN(deg)": 234.94967930248512,
        "Satellite Name": "Starlink Shell 1 1039",
        "Satellite Number": 1039,
        "Semi-Major Axis(m)": 6931778.249405717,
        "Time(s)": 970
    },
    {
        "Altitude(m)": 554833.3405976793,
        "Argument of Periapsis(deg)": 0.034160690992101214,
        "Eccentricity": 0.0,
        "Inclination(deg)": 53.0,
        "Latitude(deg)": 28.607318825096556,
        "Longitude(deg)": -73.23955321866521,
        "Mean Anomaly(deg)": -216.7523420514419,
        "RAAN(deg)": 234.94916053240763,
        "Satellite Name": "Starlink Shell 1 1039",
        "Satellite Number": 1039,
        "Semi-Major Axis(m)": 6931778.249405717,
        "Time(s)": 980
    },
    {
        "Altitude(m)": 554764.3010232183,
        "Argument of Periapsis(deg)": 0.034509269471612446,
        "Eccentricity": 0.0,
        "Inclination(deg)": 53.0,
        "Latitude(deg)": 28.147381143732215,
        "Longitude(deg)": -72.79488155879034,
        "Mean Anomaly(deg)": -216.12551084788515,
        "RAAN(deg)": 234.94864176233017,
        "Satellite Name": "Starlink Shell 1 1039",
        "Satellite Number": 1039,
        "Semi-Major Axis(m)": 6931778.249405717,
        "Time(s)": 990
    }
]